[{"OBJECT_NAME":"PRAETORIAN SDA_604","OBJECT_ID":"2025-203C","EPOCH":"2026-03-09T19:32:57.437088","MEAN_MOTION":13.8303423,"ECCENTRICITY":0.00068053,"INCLINATION":81.3021,"RA_OF_ASC_NODE":102.9284,"ARG_OF_PERICENTER":107.8605,"MEAN_ANOMALY":252.3294,"EPHEMERIS_TYPE":0,"CLASSIFICATION_TYPE":"U","NORAD_CAT_ID":65567,"ELEMENT_SET_NO":999,"REV_AT_EPOCH":2494,"BSTAR":4.0384414e-5,"MEAN_MOTION_DOT":5.6e-7,"MEAN_MOTION_DDOT":0},{"OBJECT_NAME":"SL-8 R\/B","OBJECT_ID":"1983-108B","EPOCH":"2026-03-09T17:27:15.823872","MEAN_MOTION":13.7835155,"ECCENTRICITY":0.00327893,"INCLINATION":82.9294,"RA_OF_ASC_NODE":312.7416,"ARG_OF_PERICENTER":146.3383,"MEAN_ANOMALY":213.9866,"EPHEMERIS_TYPE":0,"CLASSIFICATION_TYPE":"U","NORAD_CAT_ID":14451,"ELEMENT_SET_NO":999,"REV_AT_EPOCH":12997,"BSTAR":0.00010105879,"MEAN_MOTION_DOT":1.18e-6,"MEAN_MOTION_DDOT":0}]
